SILVERSAT               
1 66909U 98067XV  26113.44966717  .07226154  12288-4  11979-2 0  9998
2 66909  51.6027 190.0749 0007952 333.4666  26.5949 16.32457272 22308
ISS OBJECT XW           
1 66910U 98067XW  26112.94022942  .00274562  00000+0  10068-2 0  9998
2 66910  51.6160 197.2849 0011238 342.8473  17.2150 15.86944185 22167
ISS OBJECT XY           
1 66912U 98067XY  26113.43382764  .00102547  00000+0  71297-3 0  9991
2 66912  51.6236 199.1562 0007666 342.0755  17.9973 15.73554541 22171
KNACKSAT-2              
1 67683U 98067XZ  26113.49374211  .00031544  00000+0  45837-3 0  9990
2 67683  51.6295 208.5952 0012187 355.0589   5.0280 15.55418675 11751
CORAL                   
1 67684U 98067YA  26113.52686953  .00077187  00000+0  85370-3 0  9993
2 67684  51.6268 206.5604 0015958 348.4800  11.5826 15.62175853 11782
GXIBA-1                 
1 67685U 98067YB  26113.53667161  .00036665  00000+0  51520-3 0  9991
2 67685  51.6288 208.1315 0014104 352.3128   7.7645 15.56223970 11762
UITMSAT-2               
1 67686U 98067YC  26113.43689676  .00039847  00000+0  52890-3 0  9992
2 67686  51.6293 208.2184 0011137 332.8560  27.1849 15.57759455 11754
HMU-SAT2                
1 67687U 98067YD  26113.48225974  .00033422  00000+0  47732-3 0  9997
2 67687  51.6304 208.5248 0010428 334.5718  25.4759 15.55882274 11674
LEOPARD                 
1 67688U 98067YE  26112.49035446  .00037986  00000+0  51970-3 0  9999
2 67688  51.6300 213.1478 0010625 328.7653  31.2707 15.56976601 11521
CREW DRAGON 12          
1 67796U 26031A   26113.55475666  .00008745  00000+0  16716-3 0  9991
2 67796  51.6320 210.5007 0006819 341.8336  18.2408 15.48911267563428
PROGRESS-MS 33          
1 68319U 26058A   26113.55475666  .00008745  00000+0  16716-3 0  9992
2 68319  51.6320 210.5007 0006819 341.8336  18.2408 15.48911267  4756
CYGNUS NG-24            
1 68689U 26079A   26113.55475666  .00008745  00000+0  16716-3 0  9995
2 68689  51.6320 210.5007 0006819 341.8336  18.2408 15.48911267  1900
