[{"OBJECT_NAME":"SILVERSAT","OBJECT_ID":"1998-067XV","EPOCH":"2026-04-23T10:47:31.243488","MEAN_MOTION":16.32457272,"ECCENTRICITY":0.00079521,"INCLINATION":51.6027,"RA_OF_ASC_NODE":190.0749,"ARG_OF_PERICENTER":333.4666,"MEAN_ANOMALY":26.5949,"EPHEMERIS_TYPE":0,"CLASSIFICATION_TYPE":"U","NORAD_CAT_ID":66909,"ELEMENT_SET_NO":999,"REV_AT_EPOCH":2230,"BSTAR":0.001197898,"MEAN_MOTION_DOT":0.07226154,"MEAN_MOTION_DDOT":1.2288475e-5},{"OBJECT_NAME":"ISS OBJECT XW","OBJECT_ID":"1998-067XW","EPOCH":"2026-04-22T22:33:55.821888","MEAN_MOTION":15.86944185,"ECCENTRICITY":0.0011238,"INCLINATION":51.616,"RA_OF_ASC_NODE":197.2849,"ARG_OF_PERICENTER":342.8473,"MEAN_ANOMALY":17.215,"EPHEMERIS_TYPE":0,"CLASSIFICATION_TYPE":"U","NORAD_CAT_ID":66910,"ELEMENT_SET_NO":999,"REV_AT_EPOCH":2216,"BSTAR":0.0010068,"MEAN_MOTION_DOT":0.00274562,"MEAN_MOTION_DDOT":0},{"OBJECT_NAME":"ISS OBJECT XY","OBJECT_ID":"1998-067XY","EPOCH":"2026-04-23T10:24:42.708096","MEAN_MOTION":15.73554541,"ECCENTRICITY":0.00076664,"INCLINATION":51.6236,"RA_OF_ASC_NODE":199.1562,"ARG_OF_PERICENTER":342.0755,"MEAN_ANOMALY":17.9973,"EPHEMERIS_TYPE":0,"CLASSIFICATION_TYPE":"U","NORAD_CAT_ID":66912,"ELEMENT_SET_NO":999,"REV_AT_EPOCH":2217,"BSTAR":0.00071296967,"MEAN_MOTION_DOT":0.00102547,"MEAN_MOTION_DDOT":0},{"OBJECT_NAME":"KNACKSAT-2","OBJECT_ID":"1998-067XZ","EPOCH":"2026-04-23T11:50:59.318304","MEAN_MOTION":15.55418675,"ECCENTRICITY":0.00121877,"INCLINATION":51.6295,"RA_OF_ASC_NODE":208.5952,"ARG_OF_PERICENTER":355.0589,"MEAN_ANOMALY":5.028,"EPHEMERIS_TYPE":0,"CLASSIFICATION_TYPE":"U","NORAD_CAT_ID":67683,"ELEMENT_SET_NO":999,"REV_AT_EPOCH":1175,"BSTAR":0.0004583693,"MEAN_MOTION_DOT":0.00031544,"MEAN_MOTION_DDOT":0},{"OBJECT_NAME":"CORAL","OBJECT_ID":"1998-067YA","EPOCH":"2026-04-23T12:38:41.527392","MEAN_MOTION":15.62175853,"ECCENTRICITY":0.0015958,"INCLINATION":51.6268,"RA_OF_ASC_NODE":206.5604,"ARG_OF_PERICENTER":348.48,"MEAN_ANOMALY":11.5826,"EPHEMERIS_TYPE":0,"CLASSIFICATION_TYPE":"U","NORAD_CAT_ID":67684,"ELEMENT_SET_NO":999,"REV_AT_EPOCH":1178,"BSTAR":0.00085369882,"MEAN_MOTION_DOT":0.00077187,"MEAN_MOTION_DDOT":0},{"OBJECT_NAME":"GXIBA-1","OBJECT_ID":"1998-067YB","EPOCH":"2026-04-23T12:52:48.427104","MEAN_MOTION":15.5622397,"ECCENTRICITY":0.00141046,"INCLINATION":51.6288,"RA_OF_ASC_NODE":208.1315,"ARG_OF_PERICENTER":352.3128,"MEAN_ANOMALY":7.7645,"EPHEMERIS_TYPE":0,"CLASSIFICATION_TYPE":"U","NORAD_CAT_ID":67685,"ELEMENT_SET_NO":999,"REV_AT_EPOCH":1176,"BSTAR":0.0005152021,"MEAN_MOTION_DOT":0.00036665,"MEAN_MOTION_DDOT":0},{"OBJECT_NAME":"UITMSAT-2","OBJECT_ID":"1998-067YC","EPOCH":"2026-04-23T10:29:07.880064","MEAN_MOTION":15.57759455,"ECCENTRICITY":0.00111377,"INCLINATION":51.6293,"RA_OF_ASC_NODE":208.2184,"ARG_OF_PERICENTER":332.856,"MEAN_ANOMALY":27.1849,"EPHEMERIS_TYPE":0,"CLASSIFICATION_TYPE":"U","NORAD_CAT_ID":67686,"ELEMENT_SET_NO":999,"REV_AT_EPOCH":1175,"BSTAR":0.00052890492,"MEAN_MOTION_DOT":0.00039847,"MEAN_MOTION_DDOT":0},{"OBJECT_NAME":"HMU-SAT2","OBJECT_ID":"1998-067YD","EPOCH":"2026-04-23T11:34:27.241536","MEAN_MOTION":15.55882274,"ECCENTRICITY":0.00104286,"INCLINATION":51.6304,"RA_OF_ASC_NODE":208.5248,"ARG_OF_PERICENTER":334.5718,"MEAN_ANOMALY":25.4759,"EPHEMERIS_TYPE":0,"CLASSIFICATION_TYPE":"U","NORAD_CAT_ID":67687,"ELEMENT_SET_NO":999,"REV_AT_EPOCH":1167,"BSTAR":0.00047731677,"MEAN_MOTION_DOT":0.00033422,"MEAN_MOTION_DDOT":0},{"OBJECT_NAME":"LEOPARD","OBJECT_ID":"1998-067YE","EPOCH":"2026-04-22T11:46:06.625344","MEAN_MOTION":15.56976601,"ECCENTRICITY":0.0010625,"INCLINATION":51.63,"RA_OF_ASC_NODE":213.1478,"ARG_OF_PERICENTER":328.7653,"MEAN_ANOMALY":31.2707,"EPHEMERIS_TYPE":0,"CLASSIFICATION_TYPE":"U","NORAD_CAT_ID":67688,"ELEMENT_SET_NO":999,"REV_AT_EPOCH":1152,"BSTAR":0.0005197,"MEAN_MOTION_DOT":0.00037986,"MEAN_MOTION_DDOT":0},{"OBJECT_NAME":"CREW DRAGON 12","OBJECT_ID":"2026-031A","EPOCH":"2026-04-23T13:18:50.975424","MEAN_MOTION":15.48911267,"ECCENTRICITY":0.00068194,"INCLINATION":51.632,"RA_OF_ASC_NODE":210.5007,"ARG_OF_PERICENTER":341.8336,"MEAN_ANOMALY":18.2408,"EPHEMERIS_TYPE":0,"CLASSIFICATION_TYPE":"U","NORAD_CAT_ID":67796,"ELEMENT_SET_NO":999,"REV_AT_EPOCH":56342,"BSTAR":0.00016716018,"MEAN_MOTION_DOT":8.745e-5,"MEAN_MOTION_DDOT":0},{"OBJECT_NAME":"PROGRESS-MS 33","OBJECT_ID":"2026-058A","EPOCH":"2026-04-23T13:18:50.975424","MEAN_MOTION":15.48911267,"ECCENTRICITY":0.00068194,"INCLINATION":51.632,"RA_OF_ASC_NODE":210.5007,"ARG_OF_PERICENTER":341.8336,"MEAN_ANOMALY":18.2408,"EPHEMERIS_TYPE":0,"CLASSIFICATION_TYPE":"U","NORAD_CAT_ID":68319,"ELEMENT_SET_NO":999,"REV_AT_EPOCH":475,"BSTAR":0.00016716018,"MEAN_MOTION_DOT":8.745e-5,"MEAN_MOTION_DDOT":0},{"OBJECT_NAME":"CYGNUS NG-24","OBJECT_ID":"2026-079A","EPOCH":"2026-04-23T13:18:50.975424","MEAN_MOTION":15.48911267,"ECCENTRICITY":0.00068194,"INCLINATION":51.632,"RA_OF_ASC_NODE":210.5007,"ARG_OF_PERICENTER":341.8336,"MEAN_ANOMALY":18.2408,"EPHEMERIS_TYPE":0,"CLASSIFICATION_TYPE":"U","NORAD_CAT_ID":68689,"ELEMENT_SET_NO":999,"REV_AT_EPOCH":190,"BSTAR":0.00016716018,"MEAN_MOTION_DOT":8.745e-5,"MEAN_MOTION_DDOT":0}]
